IRIDIUM 130             
1 43073U 17083D   24154.40434228  .00000216  00000+0  70117-4 0  9997
2 43073  86.3962 273.4454 0002147  92.8945 267.2496 14.34218140337369
IRIDIUM 151             
1 43074U 17083E   24154.37897172  .00000194  00000+0  62051-4 0  9998
2 43074  86.3956 273.2936 0002378  90.9449 269.2020 14.34219067337386
IRIDIUM 134             
1 43075U 17083F   24154.41702650  .00000155  00000+0  48200-4 0  9997
2 43075  86.3958 273.2755 0002013  97.8445 262.2979 14.34215987337356
IRIDIUM 137             
1 43076U 17083G   24154.42970629  .00000216  00000+0  70136-4 0  9993
2 43076  86.3960 273.3484 0002708  97.1746 262.9757 14.34216714337426
IRIDIUM 141             
1 43077U 17083H   24154.77221201  .00000062  00000+0  14927-4 0  9992
2 43077  86.3955 273.0779 0002087  92.0052 268.1383 14.34218166337470
IRIDIUM 131             
1 43079U 17083K   24154.75952799 -.00000173  00000+0 -68823-4 0  9994
2 43079  86.3960 273.2201 0002278  90.9837 269.1620 14.34217101337406
